[{"OBJECT_NAME":"ICEYE-X7","OBJECT_ID":"2020-068L","EPOCH":"2026-03-09T22:52:28.702272","MEAN_MOTION":15.29152508,"ECCENTRICITY":0.00068409,"INCLINATION":97.7412,"RA_OF_ASC_NODE":31.2076,"ARG_OF_PERICENTER":332.3045,"MEAN_ANOMALY":27.7829,"EPHEMERIS_TYPE":0,"CLASSIFICATION_TYPE":"U","NORAD_CAT_ID":46496,"ELEMENT_SET_NO":999,"REV_AT_EPOCH":29961,"BSTAR":0.0005654802,"MEAN_MOTION_DOT":0.00015947,"MEAN_MOTION_DDOT":0},{"OBJECT_NAME":"STARLINK-31565","OBJECT_ID":"2024-057D","EPOCH":"2026-03-09T09:11:20.159808","MEAN_MOTION":15.27598609,"ECCENTRICITY":0.00014609,"INCLINATION":43.0003,"RA_OF_ASC_NODE":196.4627,"ARG_OF_PERICENTER":279.4542,"MEAN_ANOMALY":80.6144,"EPHEMERIS_TYPE":0,"CLASSIFICATION_TYPE":"U","NORAD_CAT_ID":59323,"ELEMENT_SET_NO":999,"REV_AT_EPOCH":10970,"BSTAR":-0.00022085213,"MEAN_MOTION_DOT":-6.338e-5,"MEAN_MOTION_DDOT":0}]
